[
    {
        "Altitude(m)": 555783.4495108369,
        "Argument of Periapsis(deg)": 0.006622991110713501,
        "Eccentricity": 0.0,
        "Inclination(deg)": 53.0,
        "Latitude(deg)": 34.24811712426086,
        "Longitude(deg)": -155.09360043467476,
        "Mean Anomaly(deg)": 44.637092867577586,
        "RAAN(deg)": 274.990143368528,
        "Satellite Name": "Starlink Shell 1 1212",
        "Satellite Number": 1212,
        "Semi-Major Axis(m)": 6931778.249405717,
        "Time(s)": 190
    },
    {
        "Altitude(m)": 555864.6289489645,
        "Argument of Periapsis(deg)": 0.0069715695902247375,
        "Eccentricity": 0.0,
        "Inclination(deg)": 53.0,
        "Latitude(deg)": 34.67903657074535,
        "Longitude(deg)": -154.58190573822804,
        "Mean Anomaly(deg)": 45.26392407113428,
        "RAAN(deg)": 274.9896245984506,
        "Satellite Name": "Starlink Shell 1 1212",
        "Satellite Number": 1212,
        "Semi-Major Axis(m)": 6931778.249405717,
        "Time(s)": 200
    },
    {
        "Altitude(m)": 555946.2890491067,
        "Argument of Periapsis(deg)": 0.007320148069735974,
        "Eccentricity": 0.0,
        "Inclination(deg)": 53.0,
        "Latitude(deg)": 35.10739083284264,
        "Longitude(deg)": -154.06447516509738,
        "Mean Anomaly(deg)": 45.890755274691024,
        "RAAN(deg)": 274.98910582837306,
        "Satellite Name": "Starlink Shell 1 1212",
        "Satellite Number": 1212,
        "Semi-Major Axis(m)": 6931778.249405717,
        "Time(s)": 210
    },
    {
        "Altitude(m)": 556028.3740895229,
        "Argument of Periapsis(deg)": 0.007668726549247212,
        "Eccentricity": 0.0,
        "Inclination(deg)": 53.0,
        "Latitude(deg)": 35.53311281899016,
        "Longitude(deg)": -153.54119137001638,
        "Mean Anomaly(deg)": 46.51758647824772,
        "RAAN(deg)": 274.98858705829554,
        "Satellite Name": "Starlink Shell 1 1212",
        "Satellite Number": 1212,
        "Semi-Major Axis(m)": 6931778.249405717,
        "Time(s)": 220
    },
    {
        "Altitude(m)": 556110.8283406153,
        "Argument of Periapsis(deg)": 0.00801730502875845,
        "Eccentricity": 0.0,
        "Inclination(deg)": 53.0,
        "Latitude(deg)": 35.956133892451064,
        "Longitude(deg)": -153.01193625809182,
        "Mean Anomaly(deg)": 47.14441768180447,
        "RAAN(deg)": 274.98806828821813,
        "Satellite Name": "Starlink Shell 1 1212",
        "Satellite Number": 1212,
        "Semi-Major Axis(m)": 6931778.249405717,
        "Time(s)": 230
    },
    {
        "Altitude(m)": 556193.5960936913,
        "Argument of Periapsis(deg)": 0.008365883508269684,
        "Eccentricity": 0.0,
        "Inclination(deg)": 53.0,
        "Latitude(deg)": 36.37638383994504,
        "Longitude(deg)": -152.47659057396112,
        "Mean Anomaly(deg)": 47.77124888536117,
        "RAAN(deg)": 274.98754951814067,
        "Satellite Name": "Starlink Shell 1 1212",
        "Satellite Number": 1212,
        "Semi-Major Axis(m)": 6931778.249405717,
        "Time(s)": 240
    },
    {
        "Altitude(m)": 556276.621689653,
        "Argument of Periapsis(deg)": 0.008714461987780921,
        "Eccentricity": 0.0,
        "Inclination(deg)": 53.0,
        "Latitude(deg)": 36.793790840952845,
        "Longitude(deg)": -151.9350350134899,
        "Mean Anomaly(deg)": 48.39808008891786,
        "RAAN(deg)": 274.98703074806315,
        "Satellite Name": "Starlink Shell 1 1212",
        "Satellite Number": 1212,
        "Semi-Major Axis(m)": 6931778.249405717,
        "Time(s)": 250
    },
    {
        "Altitude(m)": 556359.849547654,
        "Argument of Periapsis(deg)": 0.009063040467292158,
        "Eccentricity": 0.0,
        "Inclination(deg)": 53.0,
        "Latitude(deg)": 37.208281437833016,
        "Longitude(deg)": -151.38714983283626,
        "Mean Anomaly(deg)": 49.024911292474606,
        "RAAN(deg)": 274.98651197798574,
        "Satellite Name": "Starlink Shell 1 1212",
        "Satellite Number": 1212,
        "Semi-Major Axis(m)": 6931778.249405717,
        "Time(s)": 260
    },
    {
        "Altitude(m)": 556443.2241936274,
        "Argument of Periapsis(deg)": 0.009411618946803396,
        "Eccentricity": 0.0,
        "Inclination(deg)": 53.0,
        "Latitude(deg)": 37.61978050691021,
        "Longitude(deg)": -150.83281446833692,
        "Mean Anomaly(deg)": 49.651742496031304,
        "RAAN(deg)": 274.9859932079082,
        "Satellite Name": "Starlink Shell 1 1212",
        "Satellite Number": 1212,
        "Semi-Major Axis(m)": 6931778.249405717,
        "Time(s)": 270
    },
    {
        "Altitude(m)": 556526.6902887612,
        "Argument of Periapsis(deg)": 0.009760197426314633,
        "Eccentricity": 0.0,
        "Inclination(deg)": 53.0,
        "Latitude(deg)": 38.02821123070725,
        "Longitude(deg)": -150.27190868068467,
        "Mean Anomaly(deg)": 50.27857369958805,
        "RAAN(deg)": 274.98547443783076,
        "Satellite Name": "Starlink Shell 1 1212",
        "Satellite Number": 1212,
        "Semi-Major Axis(m)": 6931778.249405717,
        "Time(s)": 280
    },
    {
        "Altitude(m)": 556610.1926578193,
        "Argument of Periapsis(deg)": 0.01010877590582587,
        "Eccentricity": 0.0,
        "Inclination(deg)": 53.0,
        "Latitude(deg)": 38.433495071498065,
        "Longitude(deg)": -149.70431219825844,
        "Mean Anomaly(deg)": 50.905404903144685,
        "RAAN(deg)": 274.9849556677533,
        "Satellite Name": "Starlink Shell 1 1212",
        "Satellite Number": 1212,
        "Semi-Major Axis(m)": 6931778.249405717,
        "Time(s)": 290
    },
    {
        "Altitude(m)": 556693.6763173698,
        "Argument of Periapsis(deg)": 0.010457354385337106,
        "Eccentricity": 0.0,
        "Inclination(deg)": 53.0,
        "Latitude(deg)": 38.83555174638137,
        "Longitude(deg)": -149.12990437309065,
        "Mean Anomaly(deg)": 51.53223610670144,
        "RAAN(deg)": 274.9844368976758,
        "Satellite Name": "Starlink Shell 1 1212",
        "Satellite Number": 1212,
        "Semi-Major Axis(m)": 6931778.249405717,
        "Time(s)": 300
    },
    {
        "Altitude(m)": 556777.086503853,
        "Argument of Periapsis(deg)": 0.010805932864848343,
        "Eccentricity": 0.0,
        "Inclination(deg)": 53.0,
        "Latitude(deg)": 39.23429920408719,
        "Longitude(deg)": -148.5485653629617,
        "Mean Anomaly(deg)": 52.15906731025819,
        "RAAN(deg)": 274.9839181275983,
        "Satellite Name": "Starlink Shell 1 1212",
        "Satellite Number": 1212,
        "Semi-Major Axis(m)": 6931778.249405717,
        "Time(s)": 310
    },
    {
        "Altitude(m)": 556860.3687015079,
        "Argument of Periapsis(deg)": 0.01115451134435958,
        "Eccentricity": 0.0,
        "Inclination(deg)": 53.0,
        "Latitude(deg)": 39.629653603738745,
        "Longitude(deg)": -147.9601758144885,
        "Mean Anomaly(deg)": 52.785898513814885,
        "RAAN(deg)": 274.9833993575209,
        "Satellite Name": "Starlink Shell 1 1212",
        "Satellite Number": 1212,
        "Semi-Major Axis(m)": 6931778.249405717,
        "Time(s)": 320
    },
    {
        "Altitude(m)": 556943.4686701315,
        "Argument of Periapsis(deg)": 0.011503089823870818,
        "Eccentricity": 0.0,
        "Inclination(deg)": 53.0,
        "Latitude(deg)": 40.021529295812215,
        "Longitude(deg)": -147.36461656069332,
        "Mean Anomaly(deg)": 53.41272971737163,
        "RAAN(deg)": 274.9828805874434,
        "Satellite Name": "Starlink Shell 1 1212",
        "Satellite Number": 1212,
        "Semi-Major Axis(m)": 6931778.249405717,
        "Time(s)": 330
    },
    {
        "Altitude(m)": 557026.3324726496,
        "Argument of Periapsis(deg)": 0.011851668303382053,
        "Eccentricity": 0.0,
        "Inclination(deg)": 53.0,
        "Latitude(deg)": 40.40983880555384,
        "Longitude(deg)": -146.76176984651744,
        "Mean Anomaly(deg)": 54.03956092092827,
        "RAAN(deg)": 274.98236181736587,
        "Satellite Name": "Starlink Shell 1 1212",
        "Satellite Number": 1212,
        "Semi-Major Axis(m)": 6931778.249405717,
        "Time(s)": 340
    },
    {
        "Altitude(m)": 557108.9065025207,
        "Argument of Periapsis(deg)": 0.012200246782893292,
        "Eccentricity": 0.0,
        "Inclination(deg)": 53.0,
        "Latitude(deg)": 40.79449281912256,
        "Longitude(deg)": -146.15151905712023,
        "Mean Anomaly(deg)": 54.666392124485014,
        "RAAN(deg)": 274.98184304728846,
        "Satellite Name": "Starlink Shell 1 1212",
        "Satellite Number": 1212,
        "Semi-Major Axis(m)": 6931778.249405717,
        "Time(s)": 350
    },
    {
        "Altitude(m)": 557191.1375109088,
        "Argument of Periapsis(deg)": 0.012548825262404526,
        "Eccentricity": 0.0,
        "Inclination(deg)": 53.0,
        "Latitude(deg)": 41.17540017274866,
        "Longitude(deg)": -145.53374846239066,
        "Mean Anomaly(deg)": 55.29322332804176,
        "RAAN(deg)": 274.981324277211,
        "Satellite Name": "Starlink Shell 1 1212",
        "Satellite Number": 1212,
        "Semi-Major Axis(m)": 6931778.249405717,
        "Time(s)": 360
    },
    {
        "Altitude(m)": 557272.9726336299,
        "Argument of Periapsis(deg)": 0.012897403741915765,
        "Eccentricity": 0.0,
        "Inclination(deg)": 53.0,
        "Latitude(deg)": 41.55246784521667,
        "Longitude(deg)": -144.9083444910665,
        "Mean Anomaly(deg)": 55.92005453159846,
        "RAAN(deg)": 274.9808055071335,
        "Satellite Name": "Starlink Shell 1 1212",
        "Satellite Number": 1212,
        "Semi-Major Axis(m)": 6931778.249405717,
        "Time(s)": 370
    }
]